GLOBALSTAR M069         
1 31573U 07020C   26174.91523516 -.00000085  00000+0  67476-4 0  9997
2 31573  52.0019 233.0840 0002184 162.8189   8.5820 12.23471321879629
GLOBALSTAR M072         
1 31574U 07020D   26176.02880431 -.00000088  00000+0 -56335-4 0  9990
2 31574  51.9936  79.3688 0001507 351.2980 108.7419 11.91658399875919
GLOBALSTAR M066         
1 32265U 07048C   26174.88915109 -.00000141  00000+0 -39559-3 0  9999
2 32265  51.9605  38.6732 0005594  58.3354 315.1701 12.30386898861052
GLOBALSTAR M079         
1 37188U 10054A   26176.06397352 -.00000108  00000+0 -26045-4 0  9995
2 37188  52.0044  84.6917 0000880  41.4004  62.1003 12.62266186723541
GLOBALSTAR M074         
1 37189U 10054B   26175.06056743 -.00000109  00000+0 -29971-4 0  9993
2 37189  52.0021  87.0098 0000688  61.7428  40.1986 12.62268374724026
GLOBALSTAR M076         
1 37190U 10054C   26175.95334735 -.00000112  00000+0 -44798-4 0  9991
2 37190  52.0028  84.4959 0000894  57.4176  23.3269 12.62261903723851
GLOBALSTAR M077         
1 37191U 10054D   26176.17556095 -.00000057  00000+0  37956-3 0  9996
2 37191  51.9922 159.0190 0002606 187.1221 257.5223 11.67547915722072
GLOBALSTAR M075         
1 37192U 10054E   26176.04539191 -.00000112  00000+0 -46935-4 0  9992
2 37192  51.9942 126.2657 0000349  31.8594  47.4282 12.62267339722930
GLOBALSTAR M073         
1 37193U 10054F   26175.97942398 -.00000097  00000+0  35299-4 0  9993
2 37193  52.0075  40.5733 0001046  63.6293  74.1864 12.62266598724916
GLOBALSTAR M083         
1 37739U 11033A   26175.91863388 -.00000077  00000+0  14919-3 0  9995
2 37739  51.9877 348.9759 0000964  79.1075  83.7418 12.62263491693927
GLOBALSTAR M088         
1 37740U 11033B   26174.94437149 -.00000101  00000+0  15949-4 0  9994
2 37740  52.0208 258.3892 0000562 136.7460  35.1854 12.62268906689345
GLOBALSTAR M091         
1 37741U 11033C   26174.87797002 -.00000096  00000+0  45078-4 0  9993
2 37741  51.9979 221.5467 0000138 170.5615   0.3764 12.62264084690121
GLOBALSTAR M085         
1 37742U 11033D   26176.19117138 -.00000088  00000+0  90212-4 0  9998
2 37742  52.0097 168.8456 0000286 347.9819  93.3118 12.62264170690802
GLOBALSTAR M081         
1 37743U 11033E   26176.13722168 -.00000087  00000+0  93594-4 0  9993
2 37743  51.9929 171.4372 0000196  37.7968  37.9191 12.62265170690942
GLOBALSTAR M089         
1 37744U 11033F   26176.18285413 -.00000098  00000+0  31434-4 0  9993
2 37744  51.9917 125.4549 0000453  77.9696  26.1481 12.62267366691790
GLOBALSTAR M084         
1 38040U 11080A   26176.21079573 -.00000094  00000+0  52655-4 0  9991
2 38040  52.0028 352.8554 0001103  98.7293  72.3476 12.62267622669779
GLOBALSTAR M080         
1 38041U 11080B   26175.23197612 -.00000089  00000+0  83481-4 0  9993
2 38041  52.0081 357.5559 0000419  76.5665  94.5169 12.62269608669773
GLOBALSTAR M082         
1 38042U 11080C   26175.16821816 -.00000097  00000+0  38092-4 0  9993
2 38042  52.0092 313.2519 0000497 104.5113  66.5940 12.62263716670476
GLOBALSTAR M092         
1 38043U 11080D   26176.00641271 -.00000104  00000+0 -36146-5 0  9992
2 38043  52.0097  41.0978 0000802  74.5102  66.4364 12.62267049669033
GLOBALSTAR M090         
1 38044U 11080E   26175.11551928 -.00000103  00000+0  57614-5 0  9994
2 38044  52.0136 307.3702 0000743 100.1792  70.4848 12.62269082670589
GLOBALSTAR M086         
1 38045U 11080F   26175.13719130 -.00000088  00000+0  89344-4 0  9994
2 38045  51.9916 307.2231 0001696  79.3268  91.3316 12.62286988670534
GLOBALSTAR M097         
1 39072U 13005A   26174.81442543 -.00000095  00000+0  48313-4 0  9998
2 39072  52.0006 223.1645 0000076  82.7518 277.3357 12.62270981617740
GLOBALSTAR M093         
1 39073U 13005B   26174.78756605 -.00000098  00000+0  31727-4 0  9996
2 39073  52.0078 216.5937 0000182  52.2953 307.7930 12.62266004617693
GLOBALSTAR M094         
1 39074U 13005C   26176.13357113 -.00000109  00000+0 -31284-4 0  9991
2 39074  51.9942 126.6036 0000609  23.9631 336.1264 12.62268505619477
GLOBALSTAR M096         
1 39075U 13005D   26176.14707086 -.00000114  00000+0 -54978-4 0  9992
2 39075  52.0052 175.3714 0000237 356.6347   3.4518 12.62265628618392
GLOBALSTAR M078         
1 39076U 13005E   26174.93235982 -.00000047  00000+0  31854-3 0  9990
2 39076  51.9872 263.0705 0000436 256.6079 103.4739 12.62258764616867
GLOBALSTAR M095         
1 39077U 13005F   26174.95908684 -.00000101  00000+0  13196-4 0  9990
2 39077  52.0081 260.6029 0000104 119.7938 240.2939 12.62263545616729
GLOBALSTAR M087         
1 52888U 22064A   26175.92250105 -.00000100  00000+0  22385-4 0  9995
2 52888  52.0010  38.9029 0000869  54.2379 305.8568 12.62269218192113
